start=new Date('2022-04-20T00:00:00.000Z').valueOf();
sats=[{"CLASSIFICATION_TYPE":"U","DECAY_DATE":null,"SEMIMAJOR_AXIS":"6925.338","COUNTRY_CODE":"US","MEAN_MOTION":"15.06403307","MEAN_ANOMALY":"302.1499","PERIAPSIS":"545.992","ARG_OF_PERICENTER":"57.9660","TLE_LINE1":"1 48386U 21038AK  22109.54477542  .00003829  00000-0  27576-3 0  9997","OBJECT_TYPE":"PAYLOAD","RA_OF_ASC_NODE":"241.9037","OBJECT_NAME":"STARLINK-2606","REF_FRAME":"TEME","CENTER_NAME":"EARTH","OBJECT_ID":"2021-038AK","TIME_SYSTEM":"UTC","APOAPSIS":"548.415","EPOCH":"2022-04-19T13:04:28.596288","BSTAR":"0.00027576000000","FILE":"3408368","EPHEMERIS_TYPE":"0","SITE":"AFETR","RCS_SIZE":"LARGE","TLE_LINE2":"2 48386  53.0542 241.9037 0001749  57.9660 302.1499 15.06403307 53184","NORAD_CAT_ID":"48386","ELEMENT_SET_NO":"999","ECCENTRICITY":"0.00017490","REV_AT_EPOCH":"5318","INCLINATION":"53.0542","GP_ID":"201626448","LAUNCH_DATE":"2021-05-04","MEAN_MOTION_DDOT":"0.0000000000000","PERIOD":"95.592","MEAN_ELEMENT_THEORY":"SGP4","MEAN_MOTION_DOT":"0.00003829"},{"TLE_LINE2":"2 48387  53.0544 242.0512 0001846  46.6180 313.4963 15.06423424 53180","NORAD_CAT_ID":"48387","ELEMENT_SET_NO":"999","ECCENTRICITY":"0.00018460","SITE":"AFETR","FILE":"3408368","EPHEMERIS_TYPE":"0","RCS_SIZE":"LARGE","INCLINATION":"53.0544","GP_ID":"201626698","REV_AT_EPOCH":"5318","MEAN_MOTION_DDOT":"0.0000000000000","LAUNCH_DATE":"2021-05-04","MEAN_MOTION_DOT":"0.00011695","PERIOD":"95.591","MEAN_ELEMENT_THEORY":"SGP4","DECAY_DATE":null,"COUNTRY_CODE":"US","SEMIMAJOR_AXIS":"6925.277","CLASSIFICATION_TYPE":"U","PERIAPSIS":"545.863","MEAN_MOTION":"15.06423424","MEAN_ANOMALY":"313.4963","OBJECT_NAME":"STARLINK-2600","TLE_LINE1":"1 48387U 21038AL  22109.51159419  .00011695  00000-0  80224-3 0  9994","RA_OF_ASC_NODE":"242.0512","OBJECT_TYPE":"PAYLOAD","REF_FRAME":"TEME","ARG_OF_PERICENTER":"46.6180","BSTAR":"0.00080224000000","EPOCH":"2022-04-19T12:16:41.738016","OBJECT_ID":"2021-038AL","CENTER_NAME":"EARTH","APOAPSIS":"548.420","TIME_SYSTEM":"UTC"},{"MEAN_MOTION_DOT":"0.00002640","PERIOD":"95.591","MEAN_ELEMENT_THEORY":"SGP4","LAUNCH_DATE":"2021-05-04","MEAN_MOTION_DDOT":"0.0000000000000","INCLINATION":"53.0552","GP_ID":"201627450","REV_AT_EPOCH":"5318","NORAD_CAT_ID":"48388","TLE_LINE2":"2 48388  53.0552 242.0723 0001499  64.8256 295.2888 15.06416512 53187","ELEMENT_SET_NO":"999","ECCENTRICITY":"0.00014990","EPHEMERIS_TYPE":"0","FILE":"3408368","SITE":"AFETR","RCS_SIZE":"LARGE","EPOCH":"2022-04-19T12:07:26.420160","BSTAR":"0.00019595000000","CENTER_NAME":"EARTH","OBJECT_ID":"2021-038AM","TIME_SYSTEM":"UTC","APOAPSIS":"548.201","OBJECT_TYPE":"PAYLOAD","TLE_LINE1":"1 48388U 21038AM  22109.50516690  .00002640  00000-0  19595-3 0  9995","RA_OF_ASC_NODE":"242.0723","OBJECT_NAME":"STARLINK-2594","REF_FRAME":"TEME","ARG_OF_PERICENTER":"64.8256","PERIAPSIS":"546.125","MEAN_MOTION":"15.06416512","MEAN_ANOMALY":"295.2888","DECAY_DATE":null,"SEMIMAJOR_AXIS":"6925.298","COUNTRY_CODE":"US","CLASSIFICATION_TYPE":"U"},{"BSTAR":"0.00030334000000","EPOCH":"2022-04-19T19:47:13.649856","APOAPSIS":"548.502","TIME_SYSTEM":"UTC","OBJECT_ID":"2021-038AN","CENTER_NAME":"EARTH","REF_FRAME":"TEME","OBJECT_NAME":"STARLINK-1904","TLE_LINE1":"1 48389U 21038AN  22109.82446354  .00004241  00000-0  30334-3 0  9993","OBJECT_TYPE":"PAYLOAD","RA_OF_ASC_NODE":"235.6435","ARG_OF_PERICENTER":"59.7243","PERIAPSIS":"545.826","MEAN_ANOMALY":"300.3937","MEAN_MOTION":"15.06416270","COUNTRY_CODE":"US","SEMIMAJOR_AXIS":"6925.299","DECAY_DATE":null,"CLASSIFICATION_TYPE":"U","MEAN_MOTION_DOT":"0.00004241","MEAN_ELEMENT_THEORY":"SGP4","PERIOD":"95.591","MEAN_MOTION_DDOT":"0.0000000000000","LAUNCH_DATE":"2021-05-04","INCLINATION":"53.0557","GP_ID":"201636850","REV_AT_EPOCH":"5388","ECCENTRICITY":"0.00019320","TLE_LINE2":"2 48389  53.0557 235.6435 0001932  59.7243 300.3937 15.06416270 53883","NORAD_CAT_ID":"48389","ELEMENT_SET_NO":"999","RCS_SIZE":"LARGE","EPHEMERIS_TYPE":"0","FILE":"3408656","SITE":"AFETR"},{"PERIAPSIS":"545.953","MEAN_MOTION":"15.06420699","MEAN_ANOMALY":"313.1307","DECAY_DATE":null,"COUNTRY_CODE":"US","SEMIMAJOR_AXIS":"6925.285","CLASSIFICATION_TYPE":"U","BSTAR":"0.00052290000000","EPOCH":"2022-04-19T19:41:54.888288","OBJECT_ID":"2021-038AP","CENTER_NAME":"EARTH","TIME_SYSTEM":"UTC","APOAPSIS":"548.347","OBJECT_NAME":"STARLINK-2586","TLE_LINE1":"1 48390U 21038AP  22109.82077417  .00007520  00000-0  52290-3 0  9993","OBJECT_TYPE":"PAYLOAD","RA_OF_ASC_NODE":"235.6642","REF_FRAME":"TEME","ARG_OF_PERICENTER":"46.9826","GP_ID":"201637386","INCLINATION":"53.0535","REV_AT_EPOCH":"5388","ELEMENT_SET_NO":"999","TLE_LINE2":"2 48390  53.0535 235.6642 0001728  46.9826 313.1307 15.06420699 53882","NORAD_CAT_ID":"48390","ECCENTRICITY":"0.00017280","FILE":"3408625","EPHEMERIS_TYPE":"0","SITE":"AFETR","RCS_SIZE":"LARGE","MEAN_MOTION_DOT":"0.00007520","PERIOD":"95.591","MEAN_ELEMENT_THEORY":"SGP4","MEAN_MOTION_DDOT":"0.0000000000000","LAUNCH_DATE":"2021-05-04"},{"OBJECT_NAME":"STARLINK-2607","RA_OF_ASC_NODE":"235.9805","TLE_LINE1":"1 48391U 21038AQ  22109.75074261  .00005345  00000-0  37725-3 0  9999","OBJECT_TYPE":"PAYLOAD","REF_FRAME":"TEME","ARG_OF_PERICENTER":"41.8341","BSTAR":"0.00037725000000","EPOCH":"2022-04-19T18:01:04.161504","OBJECT_ID":"2021-038AQ","CENTER_NAME":"EARTH","TIME_SYSTEM":"UTC","APOAPSIS":"548.545","DECAY_DATE":null,"COUNTRY_CODE":"US","SEMIMAJOR_AXIS":"6925.292","CLASSIFICATION_TYPE":"U","PERIAPSIS":"545.769","MEAN_MOTION":"15.06418388","MEAN_ANOMALY":"318.2801","MEAN_MOTION_DDOT":"0.0000000000000","LAUNCH_DATE":"2021-05-04","MEAN_MOTION_DOT":"0.00005345","PERIOD":"95.591","MEAN_ELEMENT_THEORY":"SGP4","ELEMENT_SET_NO":"999","TLE_LINE2":"2 48391  53.0558 235.9805 0002004  41.8341 318.2801 15.06418388 53861","NORAD_CAT_ID":"48391","ECCENTRICITY":"0.00020040","FILE":"3408628","SITE":"AFETR","EPHEMERIS_TYPE":"0","RCS_SIZE":"LARGE","INCLINATION":"53.0558","GP_ID":"201636943","REV_AT_EPOCH":"5386"},{"TLE_LINE1":"1 48392U 21038AR  22109.61436365  .00005501  00000-0  38777-3 0  9994","RA_OF_ASC_NODE":"236.5918","OBJECT_TYPE":"PAYLOAD","OBJECT_NAME":"STARLINK-2605","REF_FRAME":"TEME","ARG_OF_PERICENTER":"43.7715","EPOCH":"2022-04-19T14:44:41.019360","BSTAR":"0.00038777000000","CENTER_NAME":"EARTH","OBJECT_ID":"2021-038AR","TIME_SYSTEM":"UTC","APOAPSIS":"548.402","DECAY_DATE":null,"SEMIMAJOR_AXIS":"6925.309","COUNTRY_CODE":"US","CLASSIFICATION_TYPE":"U","PERIAPSIS":"545.945","MEAN_MOTION":"15.06413008","MEAN_ANOMALY":"316.3414","LAUNCH_DATE":"2021-05-04","MEAN_MOTION_DDOT":"0.0000000000000","MEAN_MOTION_DOT":"0.00005501","PERIOD":"95.591","MEAN_ELEMENT_THEORY":"SGP4","TLE_LINE2":"2 48392  53.0553 236.5918 0001774  43.7715 316.3414 15.06413008 54480","NORAD_CAT_ID":"48392","ELEMENT_SET_NO":"999","ECCENTRICITY":"0.00017740","FILE":"3408368","EPHEMERIS_TYPE":"0","SITE":"AFETR","RCS_SIZE":"LARGE","GP_ID":"201627951","INCLINATION":"53.0553","REV_AT_EPOCH":"5448"},{"ARG_OF_PERICENTER":"50.7369","OBJECT_NAME":"STARLINK-2602","RA_OF_ASC_NODE":"236.3153","TLE_LINE1":"1 48393U 21038AS  22109.67702269  .00009082  00000-0  62745-3 0  9990","OBJECT_TYPE":"PAYLOAD","REF_FRAME":"TEME","OBJECT_ID":"2021-038AS","CENTER_NAME":"EARTH","TIME_SYSTEM":"UTC","APOAPSIS":"548.327","BSTAR":"0.00062745000000","EPOCH":"2022-04-19T16:14:54.760416","CLASSIFICATION_TYPE":"U","DECAY_DATE":null,"COUNTRY_CODE":"US","SEMIMAJOR_AXIS":"6925.277","MEAN_MOTION":"15.06423333","MEAN_ANOMALY":"309.3772","PERIAPSIS":"545.957","MEAN_MOTION_DDOT":"0.0000000000000","LAUNCH_DATE":"2021-05-04","PERIOD":"95.591","MEAN_ELEMENT_THEORY":"SGP4","MEAN_MOTION_DOT":"0.00009082","EPHEMERIS_TYPE":"0","FILE":"3408629","SITE":"AFETR","RCS_SIZE":"LARGE","NORAD_CAT_ID":"48393","TLE_LINE2":"2 48393  53.0542 236.3153 0001711  50.7369 309.3772 15.06423333 53864","ELEMENT_SET_NO":"999","ECCENTRICITY":"0.00017110","REV_AT_EPOCH":"5386","GP_ID":"201636969","INCLINATION":"53.0542"},{"SEMIMAJOR_AXIS":"6925.362","COUNTRY_CODE":"US","DECAY_DATE":null,"CLASSIFICATION_TYPE":"U","PERIAPSIS":"546.059","MEAN_ANOMALY":"298.4644","MEAN_MOTION":"15.06395635","REF_FRAME":"TEME","RA_OF_ASC_NODE":"236.6166","TLE_LINE1":"1 48394U 21038AT  22109.60699442  .00001528  00000-0  12145-3 0  9998","OBJECT_TYPE":"PAYLOAD","OBJECT_NAME":"STARLINK-2573","ARG_OF_PERICENTER":"61.6515","EPOCH":"2022-04-19T14:34:04.317888","BSTAR":"0.00012145000000","TIME_SYSTEM":"UTC","APOAPSIS":"548.395","CENTER_NAME":"EARTH","OBJECT_ID":"2021-038AT","ECCENTRICITY":"0.00016870","NORAD_CAT_ID":"48394","TLE_LINE2":"2 48394  53.0550 236.6166 0001687  61.6515 298.4644 15.06395635 54485","ELEMENT_SET_NO":"999","RCS_SIZE":"LARGE","SITE":"AFETR","FILE":"3408368","EPHEMERIS_TYPE":"0","GP_ID":"201626449","INCLINATION":"53.0550","REV_AT_EPOCH":"5448","LAUNCH_DATE":"2021-05-04","MEAN_MOTION_DDOT":"0.0000000000000","MEAN_MOTION_DOT":"0.00001528","MEAN_ELEMENT_THEORY":"SGP4","PERIOD":"95.592"},{"LAUNCH_DATE":"2021-05-04","MEAN_MOTION_DDOT":"0.0000000000000","MEAN_ELEMENT_THEORY":"SGP4","PERIOD":"95.592","MEAN_MOTION_DOT":"0.00003216","RCS_SIZE":"LARGE","FILE":"3408368","SITE":"AFETR","EPHEMERIS_TYPE":"0","ECCENTRICITY":"0.00017140","TLE_LINE2":"2 48395  53.0554 236.6885 0001714  50.2350 309.8789 15.06409220 54483","NORAD_CAT_ID":"48395","ELEMENT_SET_NO":"999","REV_AT_EPOCH":"5448","GP_ID":"201626699","INCLINATION":"53.0554","ARG_OF_PERICENTER":"50.2350","REF_FRAME":"TEME","OBJECT_TYPE":"PAYLOAD","TLE_LINE1":"1 48395U 21038AU  22109.59130348  .00003216  00000-0  23467-3 0  9997","RA_OF_ASC_NODE":"236.6885","OBJECT_NAME":"STARLINK-2574","APOAPSIS":"548.372","TIME_SYSTEM":"UTC","CENTER_NAME":"EARTH","OBJECT_ID":"2021-038AU","EPOCH":"2022-04-19T14:11:28.620672","BSTAR":"0.00023467000000","CLASSIFICATION_TYPE":"U","SEMIMAJOR_AXIS":"6925.320","COUNTRY_CODE":"US","DECAY_DATE":null,"MEAN_ANOMALY":"309.8789","MEAN_MOTION":"15.06409220","PERIAPSIS":"545.998"}];
